{
"type": "FeatureCollection",
"name": "isochrones_health_walk",
"crs": { "type": "name", "properties": { "name": "urn:ogc:def:crs:OGC:1.3:CRS84" } },
"features": [
{ "type": "Feature", "properties": { "facility_name": null, "osmid": 582006108, "trip_time_min": 30 }, "geometry": { "type": "Polygon", "coordinates": [ [ [ -1.488696092470356, 0.000066691319235 ], [ -1.488696167419535, 0.00006670167708 ], [ -1.488696174064426, 0.000066708316243 ], [ -1.488696147403354, 0.000066797259924 ], [ -1.488696061135369, 0.000066700675037 ], [ -1.488696092470356, 0.000066691319235 ] ] ] } },
{ "type": "Feature", "properties": { "facility_name": null, "osmid": 582006108, "trip_time_min": 45 }, "geometry": { "type": "Polygon", "coordinates": [ [ [ -1.488696092470356, 0.000066691319235 ], [ -1.488696324118671, 0.00006670312197 ], [ -1.488696147403354, 0.000066797259924 ], [ -1.488696047630576, 0.000066700291715 ], [ -1.488696092470356, 0.000066691319235 ] ] ] } },
{ "type": "Feature", "properties": { "facility_name": null, "osmid": 1006530116, "trip_time_min": 30 }, "geometry": { "type": "Polygon", "coordinates": [ [ [ -1.488696092470356, 0.000066691319235 ], [ -1.488696167419535, 0.00006670167708 ], [ -1.488696174064426, 0.000066708316243 ], [ -1.488696147403354, 0.000066797259924 ], [ -1.488696061135369, 0.000066700675037 ], [ -1.488696092470356, 0.000066691319235 ] ] ] } },
{ "type": "Feature", "properties": { "facility_name": null, "osmid": 1006530116, "trip_time_min": 45 }, "geometry": { "type": "Polygon", "coordinates": [ [ [ -1.488696092470356, 0.000066691319235 ], [ -1.488696324118671, 0.00006670312197 ], [ -1.488696147403354, 0.000066797259924 ], [ -1.488696047630576, 0.000066700291715 ], [ -1.488696092470356, 0.000066691319235 ] ] ] } },
{ "type": "Feature", "properties": { "facility_name": null, "osmid": 1006530119, "trip_time_min": 30 }, "geometry": { "type": "Polygon", "coordinates": [ [ [ -1.488696092470356, 0.000066691319235 ], [ -1.488696167419535, 0.00006670167708 ], [ -1.488696174064426, 0.000066708316243 ], [ -1.488696147403354, 0.000066797259924 ], [ -1.488696061135369, 0.000066700675037 ], [ -1.488696092470356, 0.000066691319235 ] ] ] } },
{ "type": "Feature", "properties": { "facility_name": null, "osmid": 1006530119, "trip_time_min": 45 }, "geometry": { "type": "Polygon", "coordinates": [ [ [ -1.488696092470356, 0.000066691319235 ], [ -1.488696324118671, 0.00006670312197 ], [ -1.488696147403354, 0.000066797259924 ], [ -1.488696047630576, 0.000066700291715 ], [ -1.488696092470356, 0.000066691319235 ] ] ] } },
{ "type": "Feature", "properties": { "facility_name": null, "osmid": 1240780897, "trip_time_min": 30 }, "geometry": { "type": "Polygon", "coordinates": [ [ [ -1.488696092470356, 0.000066691319235 ], [ -1.488696167419535, 0.00006670167708 ], [ -1.488696174064426, 0.000066708316243 ], [ -1.488696147403354, 0.000066797259924 ], [ -1.488696061135369, 0.000066700675037 ], [ -1.488696092470356, 0.000066691319235 ] ] ] } },
{ "type": "Feature", "properties": { "facility_name": null, "osmid": 1240780897, "trip_time_min": 45 }, "geometry": { "type": "Polygon", "coordinates": [ [ [ -1.488696092470356, 0.000066691319235 ], [ -1.488696324118671, 0.00006670312197 ], [ -1.488696147403354, 0.000066797259924 ], [ -1.488696047630576, 0.000066700291715 ], [ -1.488696092470356, 0.000066691319235 ] ] ] } },
{ "type": "Feature", "properties": { "facility_name": null, "osmid": 1240780898, "trip_time_min": 30 }, "geometry": { "type": "Polygon", "coordinates": [ [ [ -1.488696092470356, 0.000066691319235 ], [ -1.488696167419535, 0.00006670167708 ], [ -1.488696174064426, 0.000066708316243 ], [ -1.488696147403354, 0.000066797259924 ], [ -1.488696061135369, 0.000066700675037 ], [ -1.488696092470356, 0.000066691319235 ] ] ] } },
{ "type": "Feature", "properties": { "facility_name": null, "osmid": 1240780898, "trip_time_min": 45 }, "geometry": { "type": "Polygon", "coordinates": [ [ [ -1.488696092470356, 0.000066691319235 ], [ -1.488696324118671, 0.00006670312197 ], [ -1.488696147403354, 0.000066797259924 ], [ -1.488696047630576, 0.000066700291715 ], [ -1.488696092470356, 0.000066691319235 ] ] ] } },
{ "type": "Feature", "properties": { "facility_name": null, "osmid": 1242380697, "trip_time_min": 30 }, "geometry": { "type": "Polygon", "coordinates": [ [ [ -1.488696092470356, 0.000066691319235 ], [ -1.488696167419535, 0.00006670167708 ], [ -1.488696174064426, 0.000066708316243 ], [ -1.488696147403354, 0.000066797259924 ], [ -1.488696061135369, 0.000066700675037 ], [ -1.488696092470356, 0.000066691319235 ] ] ] } },
{ "type": "Feature", "properties": { "facility_name": null, "osmid": 1242380697, "trip_time_min": 45 }, "geometry": { "type": "Polygon", "coordinates": [ [ [ -1.488696092470356, 0.000066691319235 ], [ -1.488696324118671, 0.00006670312197 ], [ -1.488696147403354, 0.000066797259924 ], [ -1.488696047630576, 0.000066700291715 ], [ -1.488696092470356, 0.000066691319235 ] ] ] } },
{ "type": "Feature", "properties": { "facility_name": null, "osmid": 1242428109, "trip_time_min": 30 }, "geometry": { "type": "Polygon", "coordinates": [ [ [ -1.488696092470356, 0.000066691319235 ], [ -1.488696167419535, 0.00006670167708 ], [ -1.488696174064426, 0.000066708316243 ], [ -1.488696147403354, 0.000066797259924 ], [ -1.488696061135369, 0.000066700675037 ], [ -1.488696092470356, 0.000066691319235 ] ] ] } },
{ "type": "Feature", "properties": { "facility_name": null, "osmid": 1242428109, "trip_time_min": 45 }, "geometry": { "type": "Polygon", "coordinates": [ [ [ -1.488696092470356, 0.000066691319235 ], [ -1.488696324118671, 0.00006670312197 ], [ -1.488696147403354, 0.000066797259924 ], [ -1.488696047630576, 0.000066700291715 ], [ -1.488696092470356, 0.000066691319235 ] ] ] } },
{ "type": "Feature", "properties": { "facility_name": null, "osmid": 1242827070, "trip_time_min": 30 }, "geometry": { "type": "Polygon", "coordinates": [ [ [ -1.488696092470356, 0.000066691319235 ], [ -1.488696167419535, 0.00006670167708 ], [ -1.488696174064426, 0.000066708316243 ], [ -1.488696147403354, 0.000066797259924 ], [ -1.488696061135369, 0.000066700675037 ], [ -1.488696092470356, 0.000066691319235 ] ] ] } },
{ "type": "Feature", "properties": { "facility_name": null, "osmid": 1242827070, "trip_time_min": 45 }, "geometry": { "type": "Polygon", "coordinates": [ [ [ -1.488696092470356, 0.000066691319235 ], [ -1.488696324118671, 0.00006670312197 ], [ -1.488696147403354, 0.000066797259924 ], [ -1.488696047630576, 0.000066700291715 ], [ -1.488696092470356, 0.000066691319235 ] ] ] } },
{ "type": "Feature", "properties": { "facility_name": null, "osmid": 1242827071, "trip_time_min": 30 }, "geometry": { "type": "Polygon", "coordinates": [ [ [ -1.488696092470356, 0.000066691319235 ], [ -1.488696167419535, 0.00006670167708 ], [ -1.488696174064426, 0.000066708316243 ], [ -1.488696147403354, 0.000066797259924 ], [ -1.488696061135369, 0.000066700675037 ], [ -1.488696092470356, 0.000066691319235 ] ] ] } },
{ "type": "Feature", "properties": { "facility_name": null, "osmid": 1242827071, "trip_time_min": 45 }, "geometry": { "type": "Polygon", "coordinates": [ [ [ -1.488696092470356, 0.000066691319235 ], [ -1.488696324118671, 0.00006670312197 ], [ -1.488696147403354, 0.000066797259924 ], [ -1.488696047630576, 0.000066700291715 ], [ -1.488696092470356, 0.000066691319235 ] ] ] } },
{ "type": "Feature", "properties": { "facility_name": null, "osmid": 1242841250, "trip_time_min": 30 }, "geometry": { "type": "Polygon", "coordinates": [ [ [ -1.488696092470356, 0.000066691319235 ], [ -1.488696167419535, 0.00006670167708 ], [ -1.488696174064426, 0.000066708316243 ], [ -1.488696147403354, 0.000066797259924 ], [ -1.488696061135369, 0.000066700675037 ], [ -1.488696092470356, 0.000066691319235 ] ] ] } },
{ "type": "Feature", "properties": { "facility_name": null, "osmid": 1242841250, "trip_time_min": 45 }, "geometry": { "type": "Polygon", "coordinates": [ [ [ -1.488696092470356, 0.000066691319235 ], [ -1.488696324118671, 0.00006670312197 ], [ -1.488696147403354, 0.000066797259924 ], [ -1.488696047630576, 0.000066700291715 ], [ -1.488696092470356, 0.000066691319235 ] ] ] } },
{ "type": "Feature", "properties": { "facility_name": null, "osmid": 1242996607, "trip_time_min": 30 }, "geometry": { "type": "Polygon", "coordinates": [ [ [ -1.488696092470356, 0.000066691319235 ], [ -1.488696167419535, 0.00006670167708 ], [ -1.488696174064426, 0.000066708316243 ], [ -1.488696147403354, 0.000066797259924 ], [ -1.488696061135369, 0.000066700675037 ], [ -1.488696092470356, 0.000066691319235 ] ] ] } },
{ "type": "Feature", "properties": { "facility_name": null, "osmid": 1242996607, "trip_time_min": 45 }, "geometry": { "type": "Polygon", "coordinates": [ [ [ -1.488696092470356, 0.000066691319235 ], [ -1.488696324118671, 0.00006670312197 ], [ -1.488696147403354, 0.000066797259924 ], [ -1.488696047630576, 0.000066700291715 ], [ -1.488696092470356, 0.000066691319235 ] ] ] } },
{ "type": "Feature", "properties": { "facility_name": null, "osmid": 1243028277, "trip_time_min": 30 }, "geometry": { "type": "Polygon", "coordinates": [ [ [ -1.488696092470356, 0.000066691319235 ], [ -1.488696167419535, 0.00006670167708 ], [ -1.488696174064426, 0.000066708316243 ], [ -1.488696147403354, 0.000066797259924 ], [ -1.488696061135369, 0.000066700675037 ], [ -1.488696092470356, 0.000066691319235 ] ] ] } },
{ "type": "Feature", "properties": { "facility_name": null, "osmid": 1243028277, "trip_time_min": 45 }, "geometry": { "type": "Polygon", "coordinates": [ [ [ -1.488696092470356, 0.000066691319235 ], [ -1.488696324118671, 0.00006670312197 ], [ -1.488696147403354, 0.000066797259924 ], [ -1.488696047630576, 0.000066700291715 ], [ -1.488696092470356, 0.000066691319235 ] ] ] } },
{ "type": "Feature", "properties": { "facility_name": null, "osmid": 1243391185, "trip_time_min": 30 }, "geometry": { "type": "Polygon", "coordinates": [ [ [ -1.488696092470356, 0.000066691319235 ], [ -1.488696167419535, 0.00006670167708 ], [ -1.488696174064426, 0.000066708316243 ], [ -1.488696147403354, 0.000066797259924 ], [ -1.488696061135369, 0.000066700675037 ], [ -1.488696092470356, 0.000066691319235 ] ] ] } },
{ "type": "Feature", "properties": { "facility_name": null, "osmid": 1243391185, "trip_time_min": 45 }, "geometry": { "type": "Polygon", "coordinates": [ [ [ -1.488696092470356, 0.000066691319235 ], [ -1.488696324118671, 0.00006670312197 ], [ -1.488696147403354, 0.000066797259924 ], [ -1.488696047630576, 0.000066700291715 ], [ -1.488696092470356, 0.000066691319235 ] ] ] } },
{ "type": "Feature", "properties": { "facility_name": null, "osmid": 1244227142, "trip_time_min": 30 }, "geometry": { "type": "Polygon", "coordinates": [ [ [ -1.488696092470356, 0.000066691319235 ], [ -1.488696167419535, 0.00006670167708 ], [ -1.488696174064426, 0.000066708316243 ], [ -1.488696147403354, 0.000066797259924 ], [ -1.488696061135369, 0.000066700675037 ], [ -1.488696092470356, 0.000066691319235 ] ] ] } },
{ "type": "Feature", "properties": { "facility_name": null, "osmid": 1244227142, "trip_time_min": 45 }, "geometry": { "type": "Polygon", "coordinates": [ [ [ -1.488696092470356, 0.000066691319235 ], [ -1.488696324118671, 0.00006670312197 ], [ -1.488696147403354, 0.000066797259924 ], [ -1.488696047630576, 0.000066700291715 ], [ -1.488696092470356, 0.000066691319235 ] ] ] } }
]
}
