{
"type": "FeatureCollection",
"name": "isochrones_health_walk",
"crs": { "type": "name", "properties": { "name": "urn:ogc:def:crs:OGC:1.3:CRS84" } },
"features": [
{ "type": "Feature", "properties": { "facility_name": "BHC, Ilere", "osmid": 11258946337, "trip_time_min": 15 }, "geometry": { "type": "Polygon", "coordinates": [ [ [ -1.488697415791251, 0.000066160771434 ], [ -1.488697431327049, 0.000066161407299 ], [ -1.488697487778587, 0.000066176517455 ], [ -1.488697491936458, 0.000066178173412 ], [ -1.488697485868534, 0.000066223695107 ], [ -1.488697483832154, 0.000066230149373 ], [ -1.488697451373708, 0.000066229135598 ], [ -1.488697445151682, 0.000066222086054 ], [ -1.488697415124702, 0.000066168815816 ], [ -1.488697415791251, 0.000066160771434 ] ] ] } },
{ "type": "Feature", "properties": { "facility_name": "BHC, Ilere", "osmid": 11258946337, "trip_time_min": 30 }, "geometry": { "type": "Polygon", "coordinates": [ [ [ -1.488697551398213, 0.000066124630781 ], [ -1.488697570670811, 0.00006613621707 ], [ -1.488697566521902, 0.000066170046947 ], [ -1.488697483832154, 0.000066230149373 ], [ -1.488697451373708, 0.000066229135598 ], [ -1.488697445151682, 0.000066222086054 ], [ -1.488697400888855, 0.000066158195502 ], [ -1.488697408039029, 0.000066133164928 ], [ -1.488697551398213, 0.000066124630781 ] ] ] } },
{ "type": "Feature", "properties": { "facility_name": "BHC, Ilere", "osmid": 11258946337, "trip_time_min": 45 }, "geometry": { "type": "Polygon", "coordinates": [ [ [ -1.488697623295957, 0.000066099221387 ], [ -1.488697625942445, 0.000066100439905 ], [ -1.488697646076, 0.000066116424944 ], [ -1.488697658505715, 0.000066132542568 ], [ -1.488697657015834, 0.000066139297179 ], [ -1.488697616717373, 0.000066184219991 ], [ -1.488697564750711, 0.000066206256136 ], [ -1.488697483832154, 0.000066230149373 ], [ -1.488697451373708, 0.000066229135598 ], [ -1.488697445151682, 0.000066222086054 ], [ -1.488697400888855, 0.000066158195502 ], [ -1.488697408039029, 0.000066133164928 ], [ -1.488697623295957, 0.000066099221387 ] ] ] } },
{ "type": "Feature", "properties": { "facility_name": "Aaye Primary Health Clinic", "osmid": 11258951837, "trip_time_min": 15 }, "geometry": { "type": "Polygon", "coordinates": [ [ [ -1.488697415791251, 0.000066160771434 ], [ -1.488697431327049, 0.000066161407299 ], [ -1.488697487778587, 0.000066176517455 ], [ -1.488697491936458, 0.000066178173412 ], [ -1.488697485868534, 0.000066223695107 ], [ -1.488697483832154, 0.000066230149373 ], [ -1.488697451373708, 0.000066229135598 ], [ -1.488697445151682, 0.000066222086054 ], [ -1.488697415124702, 0.000066168815816 ], [ -1.488697415791251, 0.000066160771434 ] ] ] } },
{ "type": "Feature", "properties": { "facility_name": "Aaye Primary Health Clinic", "osmid": 11258951837, "trip_time_min": 30 }, "geometry": { "type": "Polygon", "coordinates": [ [ [ -1.488697551398213, 0.000066124630781 ], [ -1.488697570670811, 0.00006613621707 ], [ -1.488697566521902, 0.000066170046947 ], [ -1.488697483832154, 0.000066230149373 ], [ -1.488697451373708, 0.000066229135598 ], [ -1.488697445151682, 0.000066222086054 ], [ -1.488697400888855, 0.000066158195502 ], [ -1.488697408039029, 0.000066133164928 ], [ -1.488697551398213, 0.000066124630781 ] ] ] } },
{ "type": "Feature", "properties": { "facility_name": "Aaye Primary Health Clinic", "osmid": 11258951837, "trip_time_min": 45 }, "geometry": { "type": "Polygon", "coordinates": [ [ [ -1.488697623295957, 0.000066099221387 ], [ -1.488697625942445, 0.000066100439905 ], [ -1.488697646076, 0.000066116424944 ], [ -1.488697658505715, 0.000066132542568 ], [ -1.488697657015834, 0.000066139297179 ], [ -1.488697616717373, 0.000066184219991 ], [ -1.488697564750711, 0.000066206256136 ], [ -1.488697483832154, 0.000066230149373 ], [ -1.488697451373708, 0.000066229135598 ], [ -1.488697445151682, 0.000066222086054 ], [ -1.488697400888855, 0.000066158195502 ], [ -1.488697408039029, 0.000066133164928 ], [ -1.488697623295957, 0.000066099221387 ] ] ] } },
{ "type": "Feature", "properties": { "facility_name": "Will Of God Medicine & Supermarket", "osmid": 11934291536, "trip_time_min": 15 }, "geometry": { "type": "Polygon", "coordinates": [ [ [ -1.488697415791251, 0.000066160771434 ], [ -1.488697431327049, 0.000066161407299 ], [ -1.488697487778587, 0.000066176517455 ], [ -1.488697491936458, 0.000066178173412 ], [ -1.488697485868534, 0.000066223695107 ], [ -1.488697483832154, 0.000066230149373 ], [ -1.488697451373708, 0.000066229135598 ], [ -1.488697445151682, 0.000066222086054 ], [ -1.488697415124702, 0.000066168815816 ], [ -1.488697415791251, 0.000066160771434 ] ] ] } },
{ "type": "Feature", "properties": { "facility_name": "Will Of God Medicine & Supermarket", "osmid": 11934291536, "trip_time_min": 30 }, "geometry": { "type": "Polygon", "coordinates": [ [ [ -1.488697551398213, 0.000066124630781 ], [ -1.488697570670811, 0.00006613621707 ], [ -1.488697566521902, 0.000066170046947 ], [ -1.488697483832154, 0.000066230149373 ], [ -1.488697451373708, 0.000066229135598 ], [ -1.488697445151682, 0.000066222086054 ], [ -1.488697400888855, 0.000066158195502 ], [ -1.488697408039029, 0.000066133164928 ], [ -1.488697551398213, 0.000066124630781 ] ] ] } },
{ "type": "Feature", "properties": { "facility_name": "Will Of God Medicine & Supermarket", "osmid": 11934291536, "trip_time_min": 45 }, "geometry": { "type": "Polygon", "coordinates": [ [ [ -1.488697623295957, 0.000066099221387 ], [ -1.488697625942445, 0.000066100439905 ], [ -1.488697646076, 0.000066116424944 ], [ -1.488697658505715, 0.000066132542568 ], [ -1.488697657015834, 0.000066139297179 ], [ -1.488697616717373, 0.000066184219991 ], [ -1.488697564750711, 0.000066206256136 ], [ -1.488697483832154, 0.000066230149373 ], [ -1.488697451373708, 0.000066229135598 ], [ -1.488697445151682, 0.000066222086054 ], [ -1.488697400888855, 0.000066158195502 ], [ -1.488697408039029, 0.000066133164928 ], [ -1.488697623295957, 0.000066099221387 ] ] ] } },
{ "type": "Feature", "properties": { "facility_name": "Olyros Hospital", "osmid": 11934296154, "trip_time_min": 15 }, "geometry": { "type": "Polygon", "coordinates": [ [ [ -1.488697415791251, 0.000066160771434 ], [ -1.488697431327049, 0.000066161407299 ], [ -1.488697487778587, 0.000066176517455 ], [ -1.488697491936458, 0.000066178173412 ], [ -1.488697485868534, 0.000066223695107 ], [ -1.488697483832154, 0.000066230149373 ], [ -1.488697451373708, 0.000066229135598 ], [ -1.488697445151682, 0.000066222086054 ], [ -1.488697415124702, 0.000066168815816 ], [ -1.488697415791251, 0.000066160771434 ] ] ] } },
{ "type": "Feature", "properties": { "facility_name": "Olyros Hospital", "osmid": 11934296154, "trip_time_min": 30 }, "geometry": { "type": "Polygon", "coordinates": [ [ [ -1.488697551398213, 0.000066124630781 ], [ -1.488697570670811, 0.00006613621707 ], [ -1.488697566521902, 0.000066170046947 ], [ -1.488697483832154, 0.000066230149373 ], [ -1.488697451373708, 0.000066229135598 ], [ -1.488697445151682, 0.000066222086054 ], [ -1.488697400888855, 0.000066158195502 ], [ -1.488697408039029, 0.000066133164928 ], [ -1.488697551398213, 0.000066124630781 ] ] ] } },
{ "type": "Feature", "properties": { "facility_name": "Olyros Hospital", "osmid": 11934296154, "trip_time_min": 45 }, "geometry": { "type": "Polygon", "coordinates": [ [ [ -1.488697623295957, 0.000066099221387 ], [ -1.488697625942445, 0.000066100439905 ], [ -1.488697646076, 0.000066116424944 ], [ -1.488697658505715, 0.000066132542568 ], [ -1.488697657015834, 0.000066139297179 ], [ -1.488697616717373, 0.000066184219991 ], [ -1.488697564750711, 0.000066206256136 ], [ -1.488697483832154, 0.000066230149373 ], [ -1.488697451373708, 0.000066229135598 ], [ -1.488697445151682, 0.000066222086054 ], [ -1.488697400888855, 0.000066158195502 ], [ -1.488697408039029, 0.000066133164928 ], [ -1.488697623295957, 0.000066099221387 ] ] ] } },
{ "type": "Feature", "properties": { "facility_name": "Obaby Clinic", "osmid": 11938897152, "trip_time_min": 15 }, "geometry": { "type": "Polygon", "coordinates": [ [ [ -1.488697415791251, 0.000066160771434 ], [ -1.488697431327049, 0.000066161407299 ], [ -1.488697487778587, 0.000066176517455 ], [ -1.488697491936458, 0.000066178173412 ], [ -1.488697485868534, 0.000066223695107 ], [ -1.488697483832154, 0.000066230149373 ], [ -1.488697451373708, 0.000066229135598 ], [ -1.488697445151682, 0.000066222086054 ], [ -1.488697415124702, 0.000066168815816 ], [ -1.488697415791251, 0.000066160771434 ] ] ] } },
{ "type": "Feature", "properties": { "facility_name": "Obaby Clinic", "osmid": 11938897152, "trip_time_min": 30 }, "geometry": { "type": "Polygon", "coordinates": [ [ [ -1.488697551398213, 0.000066124630781 ], [ -1.488697570670811, 0.00006613621707 ], [ -1.488697566521902, 0.000066170046947 ], [ -1.488697483832154, 0.000066230149373 ], [ -1.488697451373708, 0.000066229135598 ], [ -1.488697445151682, 0.000066222086054 ], [ -1.488697400888855, 0.000066158195502 ], [ -1.488697408039029, 0.000066133164928 ], [ -1.488697551398213, 0.000066124630781 ] ] ] } },
{ "type": "Feature", "properties": { "facility_name": "Obaby Clinic", "osmid": 11938897152, "trip_time_min": 45 }, "geometry": { "type": "Polygon", "coordinates": [ [ [ -1.488697623295957, 0.000066099221387 ], [ -1.488697625942445, 0.000066100439905 ], [ -1.488697646076, 0.000066116424944 ], [ -1.488697658505715, 0.000066132542568 ], [ -1.488697657015834, 0.000066139297179 ], [ -1.488697616717373, 0.000066184219991 ], [ -1.488697564750711, 0.000066206256136 ], [ -1.488697483832154, 0.000066230149373 ], [ -1.488697451373708, 0.000066229135598 ], [ -1.488697445151682, 0.000066222086054 ], [ -1.488697400888855, 0.000066158195502 ], [ -1.488697408039029, 0.000066133164928 ], [ -1.488697623295957, 0.000066099221387 ] ] ] } },
{ "type": "Feature", "properties": { "facility_name": "Christ Bay Consultant Hospital", "osmid": 11938975201, "trip_time_min": 15 }, "geometry": { "type": "Polygon", "coordinates": [ [ [ -1.488697415791251, 0.000066160771434 ], [ -1.488697431327049, 0.000066161407299 ], [ -1.488697487778587, 0.000066176517455 ], [ -1.488697491936458, 0.000066178173412 ], [ -1.488697485868534, 0.000066223695107 ], [ -1.488697483832154, 0.000066230149373 ], [ -1.488697451373708, 0.000066229135598 ], [ -1.488697445151682, 0.000066222086054 ], [ -1.488697415124702, 0.000066168815816 ], [ -1.488697415791251, 0.000066160771434 ] ] ] } },
{ "type": "Feature", "properties": { "facility_name": "Christ Bay Consultant Hospital", "osmid": 11938975201, "trip_time_min": 30 }, "geometry": { "type": "Polygon", "coordinates": [ [ [ -1.488697551398213, 0.000066124630781 ], [ -1.488697570670811, 0.00006613621707 ], [ -1.488697566521902, 0.000066170046947 ], [ -1.488697483832154, 0.000066230149373 ], [ -1.488697451373708, 0.000066229135598 ], [ -1.488697445151682, 0.000066222086054 ], [ -1.488697400888855, 0.000066158195502 ], [ -1.488697408039029, 0.000066133164928 ], [ -1.488697551398213, 0.000066124630781 ] ] ] } },
{ "type": "Feature", "properties": { "facility_name": "Christ Bay Consultant Hospital", "osmid": 11938975201, "trip_time_min": 45 }, "geometry": { "type": "Polygon", "coordinates": [ [ [ -1.488697623295957, 0.000066099221387 ], [ -1.488697625942445, 0.000066100439905 ], [ -1.488697646076, 0.000066116424944 ], [ -1.488697658505715, 0.000066132542568 ], [ -1.488697657015834, 0.000066139297179 ], [ -1.488697616717373, 0.000066184219991 ], [ -1.488697564750711, 0.000066206256136 ], [ -1.488697483832154, 0.000066230149373 ], [ -1.488697451373708, 0.000066229135598 ], [ -1.488697445151682, 0.000066222086054 ], [ -1.488697400888855, 0.000066158195502 ], [ -1.488697408039029, 0.000066133164928 ], [ -1.488697623295957, 0.000066099221387 ] ] ] } },
{ "type": "Feature", "properties": { "facility_name": "PX Pharmacy", "osmid": 11938989612, "trip_time_min": 15 }, "geometry": { "type": "Polygon", "coordinates": [ [ [ -1.488697415791251, 0.000066160771434 ], [ -1.488697431327049, 0.000066161407299 ], [ -1.488697487778587, 0.000066176517455 ], [ -1.488697491936458, 0.000066178173412 ], [ -1.488697485868534, 0.000066223695107 ], [ -1.488697483832154, 0.000066230149373 ], [ -1.488697451373708, 0.000066229135598 ], [ -1.488697445151682, 0.000066222086054 ], [ -1.488697415124702, 0.000066168815816 ], [ -1.488697415791251, 0.000066160771434 ] ] ] } },
{ "type": "Feature", "properties": { "facility_name": "PX Pharmacy", "osmid": 11938989612, "trip_time_min": 30 }, "geometry": { "type": "Polygon", "coordinates": [ [ [ -1.488697551398213, 0.000066124630781 ], [ -1.488697570670811, 0.00006613621707 ], [ -1.488697566521902, 0.000066170046947 ], [ -1.488697483832154, 0.000066230149373 ], [ -1.488697451373708, 0.000066229135598 ], [ -1.488697445151682, 0.000066222086054 ], [ -1.488697400888855, 0.000066158195502 ], [ -1.488697408039029, 0.000066133164928 ], [ -1.488697551398213, 0.000066124630781 ] ] ] } },
{ "type": "Feature", "properties": { "facility_name": "PX Pharmacy", "osmid": 11938989612, "trip_time_min": 45 }, "geometry": { "type": "Polygon", "coordinates": [ [ [ -1.488697623295957, 0.000066099221387 ], [ -1.488697625942445, 0.000066100439905 ], [ -1.488697646076, 0.000066116424944 ], [ -1.488697658505715, 0.000066132542568 ], [ -1.488697657015834, 0.000066139297179 ], [ -1.488697616717373, 0.000066184219991 ], [ -1.488697564750711, 0.000066206256136 ], [ -1.488697483832154, 0.000066230149373 ], [ -1.488697451373708, 0.000066229135598 ], [ -1.488697445151682, 0.000066222086054 ], [ -1.488697400888855, 0.000066158195502 ], [ -1.488697408039029, 0.000066133164928 ], [ -1.488697623295957, 0.000066099221387 ] ] ] } },
{ "type": "Feature", "properties": { "facility_name": "God Save Patient Medicine & Provision", "osmid": 11940012011, "trip_time_min": 15 }, "geometry": { "type": "Polygon", "coordinates": [ [ [ -1.488697415791251, 0.000066160771434 ], [ -1.488697431327049, 0.000066161407299 ], [ -1.488697487778587, 0.000066176517455 ], [ -1.488697491936458, 0.000066178173412 ], [ -1.488697485868534, 0.000066223695107 ], [ -1.488697483832154, 0.000066230149373 ], [ -1.488697451373708, 0.000066229135598 ], [ -1.488697445151682, 0.000066222086054 ], [ -1.488697415124702, 0.000066168815816 ], [ -1.488697415791251, 0.000066160771434 ] ] ] } },
{ "type": "Feature", "properties": { "facility_name": "God Save Patient Medicine & Provision", "osmid": 11940012011, "trip_time_min": 30 }, "geometry": { "type": "Polygon", "coordinates": [ [ [ -1.488697551398213, 0.000066124630781 ], [ -1.488697570670811, 0.00006613621707 ], [ -1.488697566521902, 0.000066170046947 ], [ -1.488697483832154, 0.000066230149373 ], [ -1.488697451373708, 0.000066229135598 ], [ -1.488697445151682, 0.000066222086054 ], [ -1.488697400888855, 0.000066158195502 ], [ -1.488697408039029, 0.000066133164928 ], [ -1.488697551398213, 0.000066124630781 ] ] ] } },
{ "type": "Feature", "properties": { "facility_name": "God Save Patient Medicine & Provision", "osmid": 11940012011, "trip_time_min": 45 }, "geometry": { "type": "Polygon", "coordinates": [ [ [ -1.488697623295957, 0.000066099221387 ], [ -1.488697625942445, 0.000066100439905 ], [ -1.488697646076, 0.000066116424944 ], [ -1.488697658505715, 0.000066132542568 ], [ -1.488697657015834, 0.000066139297179 ], [ -1.488697616717373, 0.000066184219991 ], [ -1.488697564750711, 0.000066206256136 ], [ -1.488697483832154, 0.000066230149373 ], [ -1.488697451373708, 0.000066229135598 ], [ -1.488697445151682, 0.000066222086054 ], [ -1.488697400888855, 0.000066158195502 ], [ -1.488697408039029, 0.000066133164928 ], [ -1.488697623295957, 0.000066099221387 ] ] ] } },
{ "type": "Feature", "properties": { "facility_name": null, "osmid": 479390384, "trip_time_min": 15 }, "geometry": { "type": "Polygon", "coordinates": [ [ [ -1.488697415791251, 0.000066160771434 ], [ -1.488697431327049, 0.000066161407299 ], [ -1.488697487778587, 0.000066176517455 ], [ -1.488697491936458, 0.000066178173412 ], [ -1.488697485868534, 0.000066223695107 ], [ -1.488697483832154, 0.000066230149373 ], [ -1.488697451373708, 0.000066229135598 ], [ -1.488697445151682, 0.000066222086054 ], [ -1.488697415124702, 0.000066168815816 ], [ -1.488697415791251, 0.000066160771434 ] ] ] } },
{ "type": "Feature", "properties": { "facility_name": null, "osmid": 479390384, "trip_time_min": 30 }, "geometry": { "type": "Polygon", "coordinates": [ [ [ -1.488697551398213, 0.000066124630781 ], [ -1.488697570670811, 0.00006613621707 ], [ -1.488697566521902, 0.000066170046947 ], [ -1.488697483832154, 0.000066230149373 ], [ -1.488697451373708, 0.000066229135598 ], [ -1.488697445151682, 0.000066222086054 ], [ -1.488697400888855, 0.000066158195502 ], [ -1.488697408039029, 0.000066133164928 ], [ -1.488697551398213, 0.000066124630781 ] ] ] } },
{ "type": "Feature", "properties": { "facility_name": null, "osmid": 479390384, "trip_time_min": 45 }, "geometry": { "type": "Polygon", "coordinates": [ [ [ -1.488697623295957, 0.000066099221387 ], [ -1.488697625942445, 0.000066100439905 ], [ -1.488697646076, 0.000066116424944 ], [ -1.488697658505715, 0.000066132542568 ], [ -1.488697657015834, 0.000066139297179 ], [ -1.488697616717373, 0.000066184219991 ], [ -1.488697564750711, 0.000066206256136 ], [ -1.488697483832154, 0.000066230149373 ], [ -1.488697451373708, 0.000066229135598 ], [ -1.488697445151682, 0.000066222086054 ], [ -1.488697400888855, 0.000066158195502 ], [ -1.488697408039029, 0.000066133164928 ], [ -1.488697623295957, 0.000066099221387 ] ] ] } },
{ "type": "Feature", "properties": { "facility_name": null, "osmid": 479390385, "trip_time_min": 15 }, "geometry": { "type": "Polygon", "coordinates": [ [ [ -1.488697415791251, 0.000066160771434 ], [ -1.488697431327049, 0.000066161407299 ], [ -1.488697487778587, 0.000066176517455 ], [ -1.488697491936458, 0.000066178173412 ], [ -1.488697485868534, 0.000066223695107 ], [ -1.488697483832154, 0.000066230149373 ], [ -1.488697451373708, 0.000066229135598 ], [ -1.488697445151682, 0.000066222086054 ], [ -1.488697415124702, 0.000066168815816 ], [ -1.488697415791251, 0.000066160771434 ] ] ] } },
{ "type": "Feature", "properties": { "facility_name": null, "osmid": 479390385, "trip_time_min": 30 }, "geometry": { "type": "Polygon", "coordinates": [ [ [ -1.488697551398213, 0.000066124630781 ], [ -1.488697570670811, 0.00006613621707 ], [ -1.488697566521902, 0.000066170046947 ], [ -1.488697483832154, 0.000066230149373 ], [ -1.488697451373708, 0.000066229135598 ], [ -1.488697445151682, 0.000066222086054 ], [ -1.488697400888855, 0.000066158195502 ], [ -1.488697408039029, 0.000066133164928 ], [ -1.488697551398213, 0.000066124630781 ] ] ] } },
{ "type": "Feature", "properties": { "facility_name": null, "osmid": 479390385, "trip_time_min": 45 }, "geometry": { "type": "Polygon", "coordinates": [ [ [ -1.488697623295957, 0.000066099221387 ], [ -1.488697625942445, 0.000066100439905 ], [ -1.488697646076, 0.000066116424944 ], [ -1.488697658505715, 0.000066132542568 ], [ -1.488697657015834, 0.000066139297179 ], [ -1.488697616717373, 0.000066184219991 ], [ -1.488697564750711, 0.000066206256136 ], [ -1.488697483832154, 0.000066230149373 ], [ -1.488697451373708, 0.000066229135598 ], [ -1.488697445151682, 0.000066222086054 ], [ -1.488697400888855, 0.000066158195502 ], [ -1.488697408039029, 0.000066133164928 ], [ -1.488697623295957, 0.000066099221387 ] ] ] } },
{ "type": "Feature", "properties": { "facility_name": null, "osmid": 479390387, "trip_time_min": 15 }, "geometry": { "type": "Polygon", "coordinates": [ [ [ -1.488697415791251, 0.000066160771434 ], [ -1.488697431327049, 0.000066161407299 ], [ -1.488697487778587, 0.000066176517455 ], [ -1.488697491936458, 0.000066178173412 ], [ -1.488697485868534, 0.000066223695107 ], [ -1.488697483832154, 0.000066230149373 ], [ -1.488697451373708, 0.000066229135598 ], [ -1.488697445151682, 0.000066222086054 ], [ -1.488697415124702, 0.000066168815816 ], [ -1.488697415791251, 0.000066160771434 ] ] ] } },
{ "type": "Feature", "properties": { "facility_name": null, "osmid": 479390387, "trip_time_min": 30 }, "geometry": { "type": "Polygon", "coordinates": [ [ [ -1.488697551398213, 0.000066124630781 ], [ -1.488697570670811, 0.00006613621707 ], [ -1.488697566521902, 0.000066170046947 ], [ -1.488697483832154, 0.000066230149373 ], [ -1.488697451373708, 0.000066229135598 ], [ -1.488697445151682, 0.000066222086054 ], [ -1.488697400888855, 0.000066158195502 ], [ -1.488697408039029, 0.000066133164928 ], [ -1.488697551398213, 0.000066124630781 ] ] ] } },
{ "type": "Feature", "properties": { "facility_name": null, "osmid": 479390387, "trip_time_min": 45 }, "geometry": { "type": "Polygon", "coordinates": [ [ [ -1.488697623295957, 0.000066099221387 ], [ -1.488697625942445, 0.000066100439905 ], [ -1.488697646076, 0.000066116424944 ], [ -1.488697658505715, 0.000066132542568 ], [ -1.488697657015834, 0.000066139297179 ], [ -1.488697616717373, 0.000066184219991 ], [ -1.488697564750711, 0.000066206256136 ], [ -1.488697483832154, 0.000066230149373 ], [ -1.488697451373708, 0.000066229135598 ], [ -1.488697445151682, 0.000066222086054 ], [ -1.488697400888855, 0.000066158195502 ], [ -1.488697408039029, 0.000066133164928 ], [ -1.488697623295957, 0.000066099221387 ] ] ] } },
{ "type": "Feature", "properties": { "facility_name": null, "osmid": 479390389, "trip_time_min": 15 }, "geometry": { "type": "Polygon", "coordinates": [ [ [ -1.488697415791251, 0.000066160771434 ], [ -1.488697431327049, 0.000066161407299 ], [ -1.488697487778587, 0.000066176517455 ], [ -1.488697491936458, 0.000066178173412 ], [ -1.488697485868534, 0.000066223695107 ], [ -1.488697483832154, 0.000066230149373 ], [ -1.488697451373708, 0.000066229135598 ], [ -1.488697445151682, 0.000066222086054 ], [ -1.488697415124702, 0.000066168815816 ], [ -1.488697415791251, 0.000066160771434 ] ] ] } },
{ "type": "Feature", "properties": { "facility_name": null, "osmid": 479390389, "trip_time_min": 30 }, "geometry": { "type": "Polygon", "coordinates": [ [ [ -1.488697551398213, 0.000066124630781 ], [ -1.488697570670811, 0.00006613621707 ], [ -1.488697566521902, 0.000066170046947 ], [ -1.488697483832154, 0.000066230149373 ], [ -1.488697451373708, 0.000066229135598 ], [ -1.488697445151682, 0.000066222086054 ], [ -1.488697400888855, 0.000066158195502 ], [ -1.488697408039029, 0.000066133164928 ], [ -1.488697551398213, 0.000066124630781 ] ] ] } },
{ "type": "Feature", "properties": { "facility_name": null, "osmid": 479390389, "trip_time_min": 45 }, "geometry": { "type": "Polygon", "coordinates": [ [ [ -1.488697623295957, 0.000066099221387 ], [ -1.488697625942445, 0.000066100439905 ], [ -1.488697646076, 0.000066116424944 ], [ -1.488697658505715, 0.000066132542568 ], [ -1.488697657015834, 0.000066139297179 ], [ -1.488697616717373, 0.000066184219991 ], [ -1.488697564750711, 0.000066206256136 ], [ -1.488697483832154, 0.000066230149373 ], [ -1.488697451373708, 0.000066229135598 ], [ -1.488697445151682, 0.000066222086054 ], [ -1.488697400888855, 0.000066158195502 ], [ -1.488697408039029, 0.000066133164928 ], [ -1.488697623295957, 0.000066099221387 ] ] ] } },
{ "type": "Feature", "properties": { "facility_name": null, "osmid": 479390392, "trip_time_min": 15 }, "geometry": { "type": "Polygon", "coordinates": [ [ [ -1.488697415791251, 0.000066160771434 ], [ -1.488697431327049, 0.000066161407299 ], [ -1.488697487778587, 0.000066176517455 ], [ -1.488697491936458, 0.000066178173412 ], [ -1.488697485868534, 0.000066223695107 ], [ -1.488697483832154, 0.000066230149373 ], [ -1.488697451373708, 0.000066229135598 ], [ -1.488697445151682, 0.000066222086054 ], [ -1.488697415124702, 0.000066168815816 ], [ -1.488697415791251, 0.000066160771434 ] ] ] } },
{ "type": "Feature", "properties": { "facility_name": null, "osmid": 479390392, "trip_time_min": 30 }, "geometry": { "type": "Polygon", "coordinates": [ [ [ -1.488697551398213, 0.000066124630781 ], [ -1.488697570670811, 0.00006613621707 ], [ -1.488697566521902, 0.000066170046947 ], [ -1.488697483832154, 0.000066230149373 ], [ -1.488697451373708, 0.000066229135598 ], [ -1.488697445151682, 0.000066222086054 ], [ -1.488697400888855, 0.000066158195502 ], [ -1.488697408039029, 0.000066133164928 ], [ -1.488697551398213, 0.000066124630781 ] ] ] } },
{ "type": "Feature", "properties": { "facility_name": null, "osmid": 479390392, "trip_time_min": 45 }, "geometry": { "type": "Polygon", "coordinates": [ [ [ -1.488697623295957, 0.000066099221387 ], [ -1.488697625942445, 0.000066100439905 ], [ -1.488697646076, 0.000066116424944 ], [ -1.488697658505715, 0.000066132542568 ], [ -1.488697657015834, 0.000066139297179 ], [ -1.488697616717373, 0.000066184219991 ], [ -1.488697564750711, 0.000066206256136 ], [ -1.488697483832154, 0.000066230149373 ], [ -1.488697451373708, 0.000066229135598 ], [ -1.488697445151682, 0.000066222086054 ], [ -1.488697400888855, 0.000066158195502 ], [ -1.488697408039029, 0.000066133164928 ], [ -1.488697623295957, 0.000066099221387 ] ] ] } },
{ "type": "Feature", "properties": { "facility_name": null, "osmid": 482469425, "trip_time_min": 15 }, "geometry": { "type": "Polygon", "coordinates": [ [ [ -1.488697415791251, 0.000066160771434 ], [ -1.488697431327049, 0.000066161407299 ], [ -1.488697487778587, 0.000066176517455 ], [ -1.488697491936458, 0.000066178173412 ], [ -1.488697485868534, 0.000066223695107 ], [ -1.488697483832154, 0.000066230149373 ], [ -1.488697451373708, 0.000066229135598 ], [ -1.488697445151682, 0.000066222086054 ], [ -1.488697415124702, 0.000066168815816 ], [ -1.488697415791251, 0.000066160771434 ] ] ] } },
{ "type": "Feature", "properties": { "facility_name": null, "osmid": 482469425, "trip_time_min": 30 }, "geometry": { "type": "Polygon", "coordinates": [ [ [ -1.488697551398213, 0.000066124630781 ], [ -1.488697570670811, 0.00006613621707 ], [ -1.488697566521902, 0.000066170046947 ], [ -1.488697483832154, 0.000066230149373 ], [ -1.488697451373708, 0.000066229135598 ], [ -1.488697445151682, 0.000066222086054 ], [ -1.488697400888855, 0.000066158195502 ], [ -1.488697408039029, 0.000066133164928 ], [ -1.488697551398213, 0.000066124630781 ] ] ] } },
{ "type": "Feature", "properties": { "facility_name": null, "osmid": 482469425, "trip_time_min": 45 }, "geometry": { "type": "Polygon", "coordinates": [ [ [ -1.488697623295957, 0.000066099221387 ], [ -1.488697625942445, 0.000066100439905 ], [ -1.488697646076, 0.000066116424944 ], [ -1.488697658505715, 0.000066132542568 ], [ -1.488697657015834, 0.000066139297179 ], [ -1.488697616717373, 0.000066184219991 ], [ -1.488697564750711, 0.000066206256136 ], [ -1.488697483832154, 0.000066230149373 ], [ -1.488697451373708, 0.000066229135598 ], [ -1.488697445151682, 0.000066222086054 ], [ -1.488697400888855, 0.000066158195502 ], [ -1.488697408039029, 0.000066133164928 ], [ -1.488697623295957, 0.000066099221387 ] ] ] } },
{ "type": "Feature", "properties": { "facility_name": null, "osmid": 504277604, "trip_time_min": 15 }, "geometry": { "type": "Polygon", "coordinates": [ [ [ -1.488697415791251, 0.000066160771434 ], [ -1.488697431327049, 0.000066161407299 ], [ -1.488697487778587, 0.000066176517455 ], [ -1.488697491936458, 0.000066178173412 ], [ -1.488697485868534, 0.000066223695107 ], [ -1.488697483832154, 0.000066230149373 ], [ -1.488697451373708, 0.000066229135598 ], [ -1.488697445151682, 0.000066222086054 ], [ -1.488697415124702, 0.000066168815816 ], [ -1.488697415791251, 0.000066160771434 ] ] ] } },
{ "type": "Feature", "properties": { "facility_name": null, "osmid": 504277604, "trip_time_min": 30 }, "geometry": { "type": "Polygon", "coordinates": [ [ [ -1.488697551398213, 0.000066124630781 ], [ -1.488697570670811, 0.00006613621707 ], [ -1.488697566521902, 0.000066170046947 ], [ -1.488697483832154, 0.000066230149373 ], [ -1.488697451373708, 0.000066229135598 ], [ -1.488697445151682, 0.000066222086054 ], [ -1.488697400888855, 0.000066158195502 ], [ -1.488697408039029, 0.000066133164928 ], [ -1.488697551398213, 0.000066124630781 ] ] ] } },
{ "type": "Feature", "properties": { "facility_name": null, "osmid": 504277604, "trip_time_min": 45 }, "geometry": { "type": "Polygon", "coordinates": [ [ [ -1.488697623295957, 0.000066099221387 ], [ -1.488697625942445, 0.000066100439905 ], [ -1.488697646076, 0.000066116424944 ], [ -1.488697658505715, 0.000066132542568 ], [ -1.488697657015834, 0.000066139297179 ], [ -1.488697616717373, 0.000066184219991 ], [ -1.488697564750711, 0.000066206256136 ], [ -1.488697483832154, 0.000066230149373 ], [ -1.488697451373708, 0.000066229135598 ], [ -1.488697445151682, 0.000066222086054 ], [ -1.488697400888855, 0.000066158195502 ], [ -1.488697408039029, 0.000066133164928 ], [ -1.488697623295957, 0.000066099221387 ] ] ] } },
{ "type": "Feature", "properties": { "facility_name": "36.6", "osmid": 581983942, "trip_time_min": 15 }, "geometry": { "type": "Polygon", "coordinates": [ [ [ -1.488697415791251, 0.000066160771434 ], [ -1.488697431327049, 0.000066161407299 ], [ -1.488697487778587, 0.000066176517455 ], [ -1.488697491936458, 0.000066178173412 ], [ -1.488697485868534, 0.000066223695107 ], [ -1.488697483832154, 0.000066230149373 ], [ -1.488697451373708, 0.000066229135598 ], [ -1.488697445151682, 0.000066222086054 ], [ -1.488697415124702, 0.000066168815816 ], [ -1.488697415791251, 0.000066160771434 ] ] ] } },
{ "type": "Feature", "properties": { "facility_name": "36.6", "osmid": 581983942, "trip_time_min": 30 }, "geometry": { "type": "Polygon", "coordinates": [ [ [ -1.488697551398213, 0.000066124630781 ], [ -1.488697570670811, 0.00006613621707 ], [ -1.488697566521902, 0.000066170046947 ], [ -1.488697483832154, 0.000066230149373 ], [ -1.488697451373708, 0.000066229135598 ], [ -1.488697445151682, 0.000066222086054 ], [ -1.488697400888855, 0.000066158195502 ], [ -1.488697408039029, 0.000066133164928 ], [ -1.488697551398213, 0.000066124630781 ] ] ] } },
{ "type": "Feature", "properties": { "facility_name": "36.6", "osmid": 581983942, "trip_time_min": 45 }, "geometry": { "type": "Polygon", "coordinates": [ [ [ -1.488697623295957, 0.000066099221387 ], [ -1.488697625942445, 0.000066100439905 ], [ -1.488697646076, 0.000066116424944 ], [ -1.488697658505715, 0.000066132542568 ], [ -1.488697657015834, 0.000066139297179 ], [ -1.488697616717373, 0.000066184219991 ], [ -1.488697564750711, 0.000066206256136 ], [ -1.488697483832154, 0.000066230149373 ], [ -1.488697451373708, 0.000066229135598 ], [ -1.488697445151682, 0.000066222086054 ], [ -1.488697400888855, 0.000066158195502 ], [ -1.488697408039029, 0.000066133164928 ], [ -1.488697623295957, 0.000066099221387 ] ] ] } },
{ "type": "Feature", "properties": { "facility_name": null, "osmid": 584299072, "trip_time_min": 15 }, "geometry": { "type": "Polygon", "coordinates": [ [ [ -1.488697415791251, 0.000066160771434 ], [ -1.488697431327049, 0.000066161407299 ], [ -1.488697487778587, 0.000066176517455 ], [ -1.488697491936458, 0.000066178173412 ], [ -1.488697485868534, 0.000066223695107 ], [ -1.488697483832154, 0.000066230149373 ], [ -1.488697451373708, 0.000066229135598 ], [ -1.488697445151682, 0.000066222086054 ], [ -1.488697415124702, 0.000066168815816 ], [ -1.488697415791251, 0.000066160771434 ] ] ] } },
{ "type": "Feature", "properties": { "facility_name": null, "osmid": 584299072, "trip_time_min": 30 }, "geometry": { "type": "Polygon", "coordinates": [ [ [ -1.488697551398213, 0.000066124630781 ], [ -1.488697570670811, 0.00006613621707 ], [ -1.488697566521902, 0.000066170046947 ], [ -1.488697483832154, 0.000066230149373 ], [ -1.488697451373708, 0.000066229135598 ], [ -1.488697445151682, 0.000066222086054 ], [ -1.488697400888855, 0.000066158195502 ], [ -1.488697408039029, 0.000066133164928 ], [ -1.488697551398213, 0.000066124630781 ] ] ] } },
{ "type": "Feature", "properties": { "facility_name": null, "osmid": 584299072, "trip_time_min": 45 }, "geometry": { "type": "Polygon", "coordinates": [ [ [ -1.488697623295957, 0.000066099221387 ], [ -1.488697625942445, 0.000066100439905 ], [ -1.488697646076, 0.000066116424944 ], [ -1.488697658505715, 0.000066132542568 ], [ -1.488697657015834, 0.000066139297179 ], [ -1.488697616717373, 0.000066184219991 ], [ -1.488697564750711, 0.000066206256136 ], [ -1.488697483832154, 0.000066230149373 ], [ -1.488697451373708, 0.000066229135598 ], [ -1.488697445151682, 0.000066222086054 ], [ -1.488697400888855, 0.000066158195502 ], [ -1.488697408039029, 0.000066133164928 ], [ -1.488697623295957, 0.000066099221387 ] ] ] } },
{ "type": "Feature", "properties": { "facility_name": null, "osmid": 925754125, "trip_time_min": 15 }, "geometry": { "type": "Polygon", "coordinates": [ [ [ -1.488697415791251, 0.000066160771434 ], [ -1.488697431327049, 0.000066161407299 ], [ -1.488697487778587, 0.000066176517455 ], [ -1.488697491936458, 0.000066178173412 ], [ -1.488697485868534, 0.000066223695107 ], [ -1.488697483832154, 0.000066230149373 ], [ -1.488697451373708, 0.000066229135598 ], [ -1.488697445151682, 0.000066222086054 ], [ -1.488697415124702, 0.000066168815816 ], [ -1.488697415791251, 0.000066160771434 ] ] ] } },
{ "type": "Feature", "properties": { "facility_name": null, "osmid": 925754125, "trip_time_min": 30 }, "geometry": { "type": "Polygon", "coordinates": [ [ [ -1.488697551398213, 0.000066124630781 ], [ -1.488697570670811, 0.00006613621707 ], [ -1.488697566521902, 0.000066170046947 ], [ -1.488697483832154, 0.000066230149373 ], [ -1.488697451373708, 0.000066229135598 ], [ -1.488697445151682, 0.000066222086054 ], [ -1.488697400888855, 0.000066158195502 ], [ -1.488697408039029, 0.000066133164928 ], [ -1.488697551398213, 0.000066124630781 ] ] ] } },
{ "type": "Feature", "properties": { "facility_name": null, "osmid": 925754125, "trip_time_min": 45 }, "geometry": { "type": "Polygon", "coordinates": [ [ [ -1.488697623295957, 0.000066099221387 ], [ -1.488697625942445, 0.000066100439905 ], [ -1.488697646076, 0.000066116424944 ], [ -1.488697658505715, 0.000066132542568 ], [ -1.488697657015834, 0.000066139297179 ], [ -1.488697616717373, 0.000066184219991 ], [ -1.488697564750711, 0.000066206256136 ], [ -1.488697483832154, 0.000066230149373 ], [ -1.488697451373708, 0.000066229135598 ], [ -1.488697445151682, 0.000066222086054 ], [ -1.488697400888855, 0.000066158195502 ], [ -1.488697408039029, 0.000066133164928 ], [ -1.488697623295957, 0.000066099221387 ] ] ] } },
{ "type": "Feature", "properties": { "facility_name": "New FUTA Clinic", "osmid": 1169558004, "trip_time_min": 15 }, "geometry": { "type": "Polygon", "coordinates": [ [ [ -1.488697415791251, 0.000066160771434 ], [ -1.488697431327049, 0.000066161407299 ], [ -1.488697487778587, 0.000066176517455 ], [ -1.488697491936458, 0.000066178173412 ], [ -1.488697485868534, 0.000066223695107 ], [ -1.488697483832154, 0.000066230149373 ], [ -1.488697451373708, 0.000066229135598 ], [ -1.488697445151682, 0.000066222086054 ], [ -1.488697415124702, 0.000066168815816 ], [ -1.488697415791251, 0.000066160771434 ] ] ] } },
{ "type": "Feature", "properties": { "facility_name": "New FUTA Clinic", "osmid": 1169558004, "trip_time_min": 30 }, "geometry": { "type": "Polygon", "coordinates": [ [ [ -1.488697551398213, 0.000066124630781 ], [ -1.488697570670811, 0.00006613621707 ], [ -1.488697566521902, 0.000066170046947 ], [ -1.488697483832154, 0.000066230149373 ], [ -1.488697451373708, 0.000066229135598 ], [ -1.488697445151682, 0.000066222086054 ], [ -1.488697400888855, 0.000066158195502 ], [ -1.488697408039029, 0.000066133164928 ], [ -1.488697551398213, 0.000066124630781 ] ] ] } },
{ "type": "Feature", "properties": { "facility_name": "New FUTA Clinic", "osmid": 1169558004, "trip_time_min": 45 }, "geometry": { "type": "Polygon", "coordinates": [ [ [ -1.488697623295957, 0.000066099221387 ], [ -1.488697625942445, 0.000066100439905 ], [ -1.488697646076, 0.000066116424944 ], [ -1.488697658505715, 0.000066132542568 ], [ -1.488697657015834, 0.000066139297179 ], [ -1.488697616717373, 0.000066184219991 ], [ -1.488697564750711, 0.000066206256136 ], [ -1.488697483832154, 0.000066230149373 ], [ -1.488697451373708, 0.000066229135598 ], [ -1.488697445151682, 0.000066222086054 ], [ -1.488697400888855, 0.000066158195502 ], [ -1.488697408039029, 0.000066133164928 ], [ -1.488697623295957, 0.000066099221387 ] ] ] } },
{ "type": "Feature", "properties": { "facility_name": null, "osmid": 1224480856, "trip_time_min": 15 }, "geometry": { "type": "Polygon", "coordinates": [ [ [ -1.488697415791251, 0.000066160771434 ], [ -1.488697431327049, 0.000066161407299 ], [ -1.488697487778587, 0.000066176517455 ], [ -1.488697491936458, 0.000066178173412 ], [ -1.488697485868534, 0.000066223695107 ], [ -1.488697483832154, 0.000066230149373 ], [ -1.488697451373708, 0.000066229135598 ], [ -1.488697445151682, 0.000066222086054 ], [ -1.488697415124702, 0.000066168815816 ], [ -1.488697415791251, 0.000066160771434 ] ] ] } },
{ "type": "Feature", "properties": { "facility_name": null, "osmid": 1224480856, "trip_time_min": 30 }, "geometry": { "type": "Polygon", "coordinates": [ [ [ -1.488697551398213, 0.000066124630781 ], [ -1.488697570670811, 0.00006613621707 ], [ -1.488697566521902, 0.000066170046947 ], [ -1.488697483832154, 0.000066230149373 ], [ -1.488697451373708, 0.000066229135598 ], [ -1.488697445151682, 0.000066222086054 ], [ -1.488697400888855, 0.000066158195502 ], [ -1.488697408039029, 0.000066133164928 ], [ -1.488697551398213, 0.000066124630781 ] ] ] } },
{ "type": "Feature", "properties": { "facility_name": null, "osmid": 1224480856, "trip_time_min": 45 }, "geometry": { "type": "Polygon", "coordinates": [ [ [ -1.488697623295957, 0.000066099221387 ], [ -1.488697625942445, 0.000066100439905 ], [ -1.488697646076, 0.000066116424944 ], [ -1.488697658505715, 0.000066132542568 ], [ -1.488697657015834, 0.000066139297179 ], [ -1.488697616717373, 0.000066184219991 ], [ -1.488697564750711, 0.000066206256136 ], [ -1.488697483832154, 0.000066230149373 ], [ -1.488697451373708, 0.000066229135598 ], [ -1.488697445151682, 0.000066222086054 ], [ -1.488697400888855, 0.000066158195502 ], [ -1.488697408039029, 0.000066133164928 ], [ -1.488697623295957, 0.000066099221387 ] ] ] } },
{ "type": "Feature", "properties": { "facility_name": null, "osmid": 1242378990, "trip_time_min": 15 }, "geometry": { "type": "Polygon", "coordinates": [ [ [ -1.488697415791251, 0.000066160771434 ], [ -1.488697431327049, 0.000066161407299 ], [ -1.488697487778587, 0.000066176517455 ], [ -1.488697491936458, 0.000066178173412 ], [ -1.488697485868534, 0.000066223695107 ], [ -1.488697483832154, 0.000066230149373 ], [ -1.488697451373708, 0.000066229135598 ], [ -1.488697445151682, 0.000066222086054 ], [ -1.488697415124702, 0.000066168815816 ], [ -1.488697415791251, 0.000066160771434 ] ] ] } },
{ "type": "Feature", "properties": { "facility_name": null, "osmid": 1242378990, "trip_time_min": 30 }, "geometry": { "type": "Polygon", "coordinates": [ [ [ -1.488697551398213, 0.000066124630781 ], [ -1.488697570670811, 0.00006613621707 ], [ -1.488697566521902, 0.000066170046947 ], [ -1.488697483832154, 0.000066230149373 ], [ -1.488697451373708, 0.000066229135598 ], [ -1.488697445151682, 0.000066222086054 ], [ -1.488697400888855, 0.000066158195502 ], [ -1.488697408039029, 0.000066133164928 ], [ -1.488697551398213, 0.000066124630781 ] ] ] } },
{ "type": "Feature", "properties": { "facility_name": null, "osmid": 1242378990, "trip_time_min": 45 }, "geometry": { "type": "Polygon", "coordinates": [ [ [ -1.488697623295957, 0.000066099221387 ], [ -1.488697625942445, 0.000066100439905 ], [ -1.488697646076, 0.000066116424944 ], [ -1.488697658505715, 0.000066132542568 ], [ -1.488697657015834, 0.000066139297179 ], [ -1.488697616717373, 0.000066184219991 ], [ -1.488697564750711, 0.000066206256136 ], [ -1.488697483832154, 0.000066230149373 ], [ -1.488697451373708, 0.000066229135598 ], [ -1.488697445151682, 0.000066222086054 ], [ -1.488697400888855, 0.000066158195502 ], [ -1.488697408039029, 0.000066133164928 ], [ -1.488697623295957, 0.000066099221387 ] ] ] } },
{ "type": "Feature", "properties": { "facility_name": null, "osmid": 1242426976, "trip_time_min": 15 }, "geometry": { "type": "Polygon", "coordinates": [ [ [ -1.488697415791251, 0.000066160771434 ], [ -1.488697431327049, 0.000066161407299 ], [ -1.488697487778587, 0.000066176517455 ], [ -1.488697491936458, 0.000066178173412 ], [ -1.488697485868534, 0.000066223695107 ], [ -1.488697483832154, 0.000066230149373 ], [ -1.488697451373708, 0.000066229135598 ], [ -1.488697445151682, 0.000066222086054 ], [ -1.488697415124702, 0.000066168815816 ], [ -1.488697415791251, 0.000066160771434 ] ] ] } },
{ "type": "Feature", "properties": { "facility_name": null, "osmid": 1242426976, "trip_time_min": 30 }, "geometry": { "type": "Polygon", "coordinates": [ [ [ -1.488697551398213, 0.000066124630781 ], [ -1.488697570670811, 0.00006613621707 ], [ -1.488697566521902, 0.000066170046947 ], [ -1.488697483832154, 0.000066230149373 ], [ -1.488697451373708, 0.000066229135598 ], [ -1.488697445151682, 0.000066222086054 ], [ -1.488697400888855, 0.000066158195502 ], [ -1.488697408039029, 0.000066133164928 ], [ -1.488697551398213, 0.000066124630781 ] ] ] } },
{ "type": "Feature", "properties": { "facility_name": null, "osmid": 1242426976, "trip_time_min": 45 }, "geometry": { "type": "Polygon", "coordinates": [ [ [ -1.488697623295957, 0.000066099221387 ], [ -1.488697625942445, 0.000066100439905 ], [ -1.488697646076, 0.000066116424944 ], [ -1.488697658505715, 0.000066132542568 ], [ -1.488697657015834, 0.000066139297179 ], [ -1.488697616717373, 0.000066184219991 ], [ -1.488697564750711, 0.000066206256136 ], [ -1.488697483832154, 0.000066230149373 ], [ -1.488697451373708, 0.000066229135598 ], [ -1.488697445151682, 0.000066222086054 ], [ -1.488697400888855, 0.000066158195502 ], [ -1.488697408039029, 0.000066133164928 ], [ -1.488697623295957, 0.000066099221387 ] ] ] } },
{ "type": "Feature", "properties": { "facility_name": null, "osmid": 1242841732, "trip_time_min": 15 }, "geometry": { "type": "Polygon", "coordinates": [ [ [ -1.488697415791251, 0.000066160771434 ], [ -1.488697431327049, 0.000066161407299 ], [ -1.488697487778587, 0.000066176517455 ], [ -1.488697491936458, 0.000066178173412 ], [ -1.488697485868534, 0.000066223695107 ], [ -1.488697483832154, 0.000066230149373 ], [ -1.488697451373708, 0.000066229135598 ], [ -1.488697445151682, 0.000066222086054 ], [ -1.488697415124702, 0.000066168815816 ], [ -1.488697415791251, 0.000066160771434 ] ] ] } },
{ "type": "Feature", "properties": { "facility_name": null, "osmid": 1242841732, "trip_time_min": 30 }, "geometry": { "type": "Polygon", "coordinates": [ [ [ -1.488697551398213, 0.000066124630781 ], [ -1.488697570670811, 0.00006613621707 ], [ -1.488697566521902, 0.000066170046947 ], [ -1.488697483832154, 0.000066230149373 ], [ -1.488697451373708, 0.000066229135598 ], [ -1.488697445151682, 0.000066222086054 ], [ -1.488697400888855, 0.000066158195502 ], [ -1.488697408039029, 0.000066133164928 ], [ -1.488697551398213, 0.000066124630781 ] ] ] } },
{ "type": "Feature", "properties": { "facility_name": null, "osmid": 1242841732, "trip_time_min": 45 }, "geometry": { "type": "Polygon", "coordinates": [ [ [ -1.488697623295957, 0.000066099221387 ], [ -1.488697625942445, 0.000066100439905 ], [ -1.488697646076, 0.000066116424944 ], [ -1.488697658505715, 0.000066132542568 ], [ -1.488697657015834, 0.000066139297179 ], [ -1.488697616717373, 0.000066184219991 ], [ -1.488697564750711, 0.000066206256136 ], [ -1.488697483832154, 0.000066230149373 ], [ -1.488697451373708, 0.000066229135598 ], [ -1.488697445151682, 0.000066222086054 ], [ -1.488697400888855, 0.000066158195502 ], [ -1.488697408039029, 0.000066133164928 ], [ -1.488697623295957, 0.000066099221387 ] ] ] } },
{ "type": "Feature", "properties": { "facility_name": null, "osmid": 1243391856, "trip_time_min": 15 }, "geometry": { "type": "Polygon", "coordinates": [ [ [ -1.488697415791251, 0.000066160771434 ], [ -1.488697431327049, 0.000066161407299 ], [ -1.488697487778587, 0.000066176517455 ], [ -1.488697491936458, 0.000066178173412 ], [ -1.488697485868534, 0.000066223695107 ], [ -1.488697483832154, 0.000066230149373 ], [ -1.488697451373708, 0.000066229135598 ], [ -1.488697445151682, 0.000066222086054 ], [ -1.488697415124702, 0.000066168815816 ], [ -1.488697415791251, 0.000066160771434 ] ] ] } },
{ "type": "Feature", "properties": { "facility_name": null, "osmid": 1243391856, "trip_time_min": 30 }, "geometry": { "type": "Polygon", "coordinates": [ [ [ -1.488697551398213, 0.000066124630781 ], [ -1.488697570670811, 0.00006613621707 ], [ -1.488697566521902, 0.000066170046947 ], [ -1.488697483832154, 0.000066230149373 ], [ -1.488697451373708, 0.000066229135598 ], [ -1.488697445151682, 0.000066222086054 ], [ -1.488697400888855, 0.000066158195502 ], [ -1.488697408039029, 0.000066133164928 ], [ -1.488697551398213, 0.000066124630781 ] ] ] } },
{ "type": "Feature", "properties": { "facility_name": null, "osmid": 1243391856, "trip_time_min": 45 }, "geometry": { "type": "Polygon", "coordinates": [ [ [ -1.488697623295957, 0.000066099221387 ], [ -1.488697625942445, 0.000066100439905 ], [ -1.488697646076, 0.000066116424944 ], [ -1.488697658505715, 0.000066132542568 ], [ -1.488697657015834, 0.000066139297179 ], [ -1.488697616717373, 0.000066184219991 ], [ -1.488697564750711, 0.000066206256136 ], [ -1.488697483832154, 0.000066230149373 ], [ -1.488697451373708, 0.000066229135598 ], [ -1.488697445151682, 0.000066222086054 ], [ -1.488697400888855, 0.000066158195502 ], [ -1.488697408039029, 0.000066133164928 ], [ -1.488697623295957, 0.000066099221387 ] ] ] } },
{ "type": "Feature", "properties": { "facility_name": null, "osmid": 1243397837, "trip_time_min": 15 }, "geometry": { "type": "Polygon", "coordinates": [ [ [ -1.488697415791251, 0.000066160771434 ], [ -1.488697431327049, 0.000066161407299 ], [ -1.488697487778587, 0.000066176517455 ], [ -1.488697491936458, 0.000066178173412 ], [ -1.488697485868534, 0.000066223695107 ], [ -1.488697483832154, 0.000066230149373 ], [ -1.488697451373708, 0.000066229135598 ], [ -1.488697445151682, 0.000066222086054 ], [ -1.488697415124702, 0.000066168815816 ], [ -1.488697415791251, 0.000066160771434 ] ] ] } },
{ "type": "Feature", "properties": { "facility_name": null, "osmid": 1243397837, "trip_time_min": 30 }, "geometry": { "type": "Polygon", "coordinates": [ [ [ -1.488697551398213, 0.000066124630781 ], [ -1.488697570670811, 0.00006613621707 ], [ -1.488697566521902, 0.000066170046947 ], [ -1.488697483832154, 0.000066230149373 ], [ -1.488697451373708, 0.000066229135598 ], [ -1.488697445151682, 0.000066222086054 ], [ -1.488697400888855, 0.000066158195502 ], [ -1.488697408039029, 0.000066133164928 ], [ -1.488697551398213, 0.000066124630781 ] ] ] } },
{ "type": "Feature", "properties": { "facility_name": null, "osmid": 1243397837, "trip_time_min": 45 }, "geometry": { "type": "Polygon", "coordinates": [ [ [ -1.488697623295957, 0.000066099221387 ], [ -1.488697625942445, 0.000066100439905 ], [ -1.488697646076, 0.000066116424944 ], [ -1.488697658505715, 0.000066132542568 ], [ -1.488697657015834, 0.000066139297179 ], [ -1.488697616717373, 0.000066184219991 ], [ -1.488697564750711, 0.000066206256136 ], [ -1.488697483832154, 0.000066230149373 ], [ -1.488697451373708, 0.000066229135598 ], [ -1.488697445151682, 0.000066222086054 ], [ -1.488697400888855, 0.000066158195502 ], [ -1.488697408039029, 0.000066133164928 ], [ -1.488697623295957, 0.000066099221387 ] ] ] } },
{ "type": "Feature", "properties": { "facility_name": "First Mercy Specialist Hospital", "osmid": 1296015365, "trip_time_min": 15 }, "geometry": { "type": "Polygon", "coordinates": [ [ [ -1.488697415791251, 0.000066160771434 ], [ -1.488697431327049, 0.000066161407299 ], [ -1.488697487778587, 0.000066176517455 ], [ -1.488697491936458, 0.000066178173412 ], [ -1.488697485868534, 0.000066223695107 ], [ -1.488697483832154, 0.000066230149373 ], [ -1.488697451373708, 0.000066229135598 ], [ -1.488697445151682, 0.000066222086054 ], [ -1.488697415124702, 0.000066168815816 ], [ -1.488697415791251, 0.000066160771434 ] ] ] } },
{ "type": "Feature", "properties": { "facility_name": "First Mercy Specialist Hospital", "osmid": 1296015365, "trip_time_min": 30 }, "geometry": { "type": "Polygon", "coordinates": [ [ [ -1.488697551398213, 0.000066124630781 ], [ -1.488697570670811, 0.00006613621707 ], [ -1.488697566521902, 0.000066170046947 ], [ -1.488697483832154, 0.000066230149373 ], [ -1.488697451373708, 0.000066229135598 ], [ -1.488697445151682, 0.000066222086054 ], [ -1.488697400888855, 0.000066158195502 ], [ -1.488697408039029, 0.000066133164928 ], [ -1.488697551398213, 0.000066124630781 ] ] ] } },
{ "type": "Feature", "properties": { "facility_name": "First Mercy Specialist Hospital", "osmid": 1296015365, "trip_time_min": 45 }, "geometry": { "type": "Polygon", "coordinates": [ [ [ -1.488697623295957, 0.000066099221387 ], [ -1.488697625942445, 0.000066100439905 ], [ -1.488697646076, 0.000066116424944 ], [ -1.488697658505715, 0.000066132542568 ], [ -1.488697657015834, 0.000066139297179 ], [ -1.488697616717373, 0.000066184219991 ], [ -1.488697564750711, 0.000066206256136 ], [ -1.488697483832154, 0.000066230149373 ], [ -1.488697451373708, 0.000066229135598 ], [ -1.488697445151682, 0.000066222086054 ], [ -1.488697400888855, 0.000066158195502 ], [ -1.488697408039029, 0.000066133164928 ], [ -1.488697623295957, 0.000066099221387 ] ] ] } }
]
}
